start=new Date('2021-10-07T00:00:00.000Z').valueOf();
sats=[{"CLASSIFICATION_TYPE":"U","BSTAR":"0.00002355600000","INCLINATION":"53.0345","SEMIMAJOR_AXIS":"6727.830","RA_OF_ASC_NODE":"8.5423","EPOCH":"2021-10-06T17:51:14.226624","ELEMENT_SET_NO":"999","CENTER_NAME":"EARTH","GP_ID":"186422704","APOAPSIS":"354.128","COUNTRY_CODE":"US","OBJECT_NAME":"STARLINK-1229","EPHEMERIS_TYPE":"0","MEAN_MOTION_DDOT":"0.0000000000000","TLE_LINE1":"1 45231U 20012BF  21279.74391466  .00002685  00000-0  23556-4 0  9997","LAUNCH_DATE":"2020-02-17","RCS_SIZE":"LARGE","OBJECT_ID":"2020-012BF","NORAD_CAT_ID":"45231","REF_FRAME":"TEME","MEAN_MOTION_DOT":"0.00002685","ARG_OF_PERICENTER":"336.9459","FILE":"3148521","MEAN_ANOMALY":"23.1262","MEAN_ELEMENT_THEORY":"SGP4","REV_AT_EPOCH":"9253","MEAN_MOTION":"15.73222948","TLE_LINE2":"2 45231  53.0345   8.5423 0006590 336.9459  23.1262 15.73222948 92536","SITE":"AFETR","OBJECT_TYPE":"PAYLOAD","PERIOD":"91.532","PERIAPSIS":"345.261","DECAY_DATE":null,"ECCENTRICITY":"0.00065900","TIME_SYSTEM":"UTC"},{"SEMIMAJOR_AXIS":"6925.374","INCLINATION":"53.0550","RA_OF_ASC_NODE":"56.3306","EPOCH":"2021-10-06T18:09:41.094432","ELEMENT_SET_NO":"999","CLASSIFICATION_TYPE":"U","BSTAR":"0.00004625800000","COUNTRY_CODE":"US","EPHEMERIS_TYPE":"0","OBJECT_NAME":"STARLINK-1235","MEAN_MOTION_DDOT":"0.0000000000000","CENTER_NAME":"EARTH","GP_ID":"186422953","APOAPSIS":"548.473","OBJECT_ID":"2020-012BG","REF_FRAME":"TEME","NORAD_CAT_ID":"45232","ARG_OF_PERICENTER":"99.6030","MEAN_MOTION_DOT":"0.00000407","FILE":"3148521","MEAN_ELEMENT_THEORY":"SGP4","MEAN_ANOMALY":"260.5161","REV_AT_EPOCH":"9199","TLE_LINE1":"1 45232U 20012BG  21279.75672563  .00000407  00000-0  46258-4 0  9993","LAUNCH_DATE":"2020-02-17","RCS_SIZE":"LARGE","DECAY_DATE":null,"TIME_SYSTEM":"UTC","ECCENTRICITY":"0.00017810","MEAN_MOTION":"15.06391599","TLE_LINE2":"2 45232  53.0550  56.3306 0001781  99.6030 260.5161 15.06391599 91990","SITE":"AFETR","OBJECT_TYPE":"PAYLOAD","PERIOD":"95.593","PERIAPSIS":"546.006"},{"SEMIMAJOR_AXIS":"6925.379","INCLINATION":"53.0564","EPOCH":"2021-10-06T17:40:29.680032","RA_OF_ASC_NODE":"76.4135","ELEMENT_SET_NO":"999","BSTAR":"-0.00001333000000","CLASSIFICATION_TYPE":"U","COUNTRY_CODE":"US","OBJECT_NAME":"STARLINK-1238","EPHEMERIS_TYPE":"0","MEAN_MOTION_DDOT":"0.0000000000000","CENTER_NAME":"EARTH","GP_ID":"186423205","APOAPSIS":"548.538","OBJECT_ID":"2020-012BH","NORAD_CAT_ID":"45233","REF_FRAME":"TEME","ARG_OF_PERICENTER":"90.3885","MEAN_MOTION_DOT":"-0.00000480","FILE":"3148521","MEAN_ELEMENT_THEORY":"SGP4","MEAN_ANOMALY":"269.7318","REV_AT_EPOCH":"9169","TLE_LINE1":"1 45233U 20012BH  21279.73645463 -.00000480  00000-0 -13330-4 0  9999","LAUNCH_DATE":"2020-02-17","RCS_SIZE":"LARGE","DECAY_DATE":null,"TIME_SYSTEM":"UTC","ECCENTRICITY":"0.00018690","TLE_LINE2":"2 45233  53.0564  76.4135 0001869  90.3885 269.7318 15.06390029 91691","MEAN_MOTION":"15.06390029","SITE":"AFETR","OBJECT_TYPE":"PAYLOAD","PERIOD":"95.593","PERIAPSIS":"545.950"},{"APOAPSIS":"548.307","CENTER_NAME":"EARTH","GP_ID":"186423456","COUNTRY_CODE":"US","MEAN_MOTION_DDOT":"0.0000000000000","OBJECT_NAME":"STARLINK-1243","EPHEMERIS_TYPE":"0","BSTAR":"0.00013265000000","CLASSIFICATION_TYPE":"U","SEMIMAJOR_AXIS":"6925.357","INCLINATION":"53.0530","EPOCH":"2021-10-06T18:36:13.810176","RA_OF_ASC_NODE":"96.2542","ELEMENT_SET_NO":"999","TLE_LINE2":"2 45234  53.0530  96.2542 0001567  87.8941 272.2228 15.06397294 91405","MEAN_MOTION":"15.06397294","PERIOD":"95.592","OBJECT_TYPE":"PAYLOAD","SITE":"AFETR","PERIAPSIS":"546.137","DECAY_DATE":null,"TIME_SYSTEM":"UTC","ECCENTRICITY":"0.00015670","LAUNCH_DATE":"2020-02-17","TLE_LINE1":"1 45234U 20012BJ  21279.77515984  .00001695  00000-0  13265-3 0  9991","RCS_SIZE":"LARGE","REF_FRAME":"TEME","NORAD_CAT_ID":"45234","OBJECT_ID":"2020-012BJ","ARG_OF_PERICENTER":"87.8941","MEAN_MOTION_DOT":"0.00001695","FILE":"3148521","REV_AT_EPOCH":"9140","MEAN_ELEMENT_THEORY":"SGP4","MEAN_ANOMALY":"272.2228"},{"CENTER_NAME":"EARTH","GP_ID":"186422205","APOAPSIS":"548.740","OBJECT_NAME":"STARLINK-1246","EPHEMERIS_TYPE":"0","MEAN_MOTION_DDOT":"0.0000000000000","COUNTRY_CODE":"US","BSTAR":"0.00014796000000","CLASSIFICATION_TYPE":"U","ELEMENT_SET_NO":"999","EPOCH":"2021-10-06T18:14:58.832160","RA_OF_ASC_NODE":"96.3232","SEMIMAJOR_AXIS":"6925.328","INCLINATION":"53.0551","PERIAPSIS":"545.645","OBJECT_TYPE":"PAYLOAD","SITE":"AFETR","PERIOD":"95.592","TLE_LINE2":"2 45235  53.0551  96.3232 0002234  89.5734 270.5511 15.06406866 91454","MEAN_MOTION":"15.06406866","TIME_SYSTEM":"UTC","ECCENTRICITY":"0.00022340","DECAY_DATE":null,"RCS_SIZE":"LARGE","TLE_LINE1":"1 45235U 20012BK  21279.76040315  .00001923  00000-0  14796-3 0  9996","LAUNCH_DATE":"2020-02-17","MEAN_ANOMALY":"270.5511","MEAN_ELEMENT_THEORY":"SGP4","REV_AT_EPOCH":"9145","FILE":"3148521","MEAN_MOTION_DOT":"0.00001923","ARG_OF_PERICENTER":"89.5734","OBJECT_ID":"2020-012BK","NORAD_CAT_ID":"45235","REF_FRAME":"TEME"},{"TIME_SYSTEM":"UTC","ECCENTRICITY":"0.00013310","DECAY_DATE":null,"PERIAPSIS":"546.291","OBJECT_TYPE":"PAYLOAD","SITE":"AFETR","PERIOD":"95.592","TLE_LINE2":"2 45236  53.0534  56.7027 0001331 104.4358 255.6779 15.06400278 91972","MEAN_MOTION":"15.06400278","MEAN_ELEMENT_THEORY":"SGP4","MEAN_ANOMALY":"255.6779","REV_AT_EPOCH":"9197","FILE":"3148521","ARG_OF_PERICENTER":"104.4358","MEAN_MOTION_DOT":"-0.00001840","OBJECT_ID":"2020-012BL","REF_FRAME":"TEME","NORAD_CAT_ID":"45236","RCS_SIZE":"LARGE","TLE_LINE1":"1 45236U 20012BL  21279.67562938 -.00001840  00000-0 -10464-3 0  9995","LAUNCH_DATE":"2020-02-17","OBJECT_NAME":"STARLINK-1247","EPHEMERIS_TYPE":"0","MEAN_MOTION_DDOT":"0.0000000000000","COUNTRY_CODE":"US","CENTER_NAME":"EARTH","GP_ID":"186422455","APOAPSIS":"548.134","ELEMENT_SET_NO":"999","EPOCH":"2021-10-06T16:12:54.378432","RA_OF_ASC_NODE":"56.7027","INCLINATION":"53.0534","SEMIMAJOR_AXIS":"6925.348","BSTAR":"-0.00010464000000","CLASSIFICATION_TYPE":"U"},{"COUNTRY_CODE":"US","MEAN_MOTION_DDOT":"0.0000000000000","OBJECT_NAME":"STARLINK-1270","EPHEMERIS_TYPE":"0","APOAPSIS":"548.466","CENTER_NAME":"EARTH","GP_ID":"186423705","EPOCH":"2021-10-06T16:44:45.922272","RA_OF_ASC_NODE":"56.6076","INCLINATION":"53.0556","SEMIMAJOR_AXIS":"6925.368","ELEMENT_SET_NO":"999","CLASSIFICATION_TYPE":"U","BSTAR":"0.00012656000000","DECAY_DATE":null,"TIME_SYSTEM":"UTC","ECCENTRICITY":"0.00017800","PERIOD":"95.593","SITE":"AFETR","OBJECT_TYPE":"PAYLOAD","MEAN_MOTION":"15.06393705","TLE_LINE2":"2 45237  53.0556  56.6076 0001780 101.6596 258.4593 15.06393705 91983","PERIAPSIS":"546.000","MEAN_MOTION_DOT":"0.00001604","ARG_OF_PERICENTER":"101.6596","NORAD_CAT_ID":"45237","REF_FRAME":"TEME","OBJECT_ID":"2020-012BM","REV_AT_EPOCH":"9198","MEAN_ELEMENT_THEORY":"SGP4","MEAN_ANOMALY":"258.4593","FILE":"3148521","RCS_SIZE":"LARGE","LAUNCH_DATE":"2020-02-17","TLE_LINE1":"1 45237U 20012BM  21279.69775373  .00001604  00000-0  12656-3 0  9998"},{"DECAY_DATE":null,"TIME_SYSTEM":"UTC","ECCENTRICITY":"0.00016890","TLE_LINE2":"2 45360  53.0544 187.6793 0001689  77.1383 282.9794 15.06390818 86685","MEAN_MOTION":"15.06390818","SITE":"AFETR","OBJECT_TYPE":"PAYLOAD","PERIOD":"95.593","PERIAPSIS":"546.072","OBJECT_ID":"2020-019A","NORAD_CAT_ID":"45360","REF_FRAME":"TEME","MEAN_MOTION_DOT":"-0.00000509","ARG_OF_PERICENTER":"77.1383","FILE":"3148521","MEAN_ANOMALY":"282.9794","MEAN_ELEMENT_THEORY":"SGP4","REV_AT_EPOCH":"8668","TLE_LINE1":"1 45360U 20019A   21279.45725185 -.00000509  00000-0 -15304-4 0  9991","LAUNCH_DATE":"2020-03-18","RCS_SIZE":"LARGE","COUNTRY_CODE":"US","OBJECT_NAME":"STARLINK-1279","EPHEMERIS_TYPE":"0","MEAN_MOTION_DDOT":"0.0000000000000","CENTER_NAME":"EARTH","GP_ID":"186422469","APOAPSIS":"548.411","SEMIMAJOR_AXIS":"6925.377","INCLINATION":"53.0544","EPOCH":"2021-10-06T10:58:26.559840","RA_OF_ASC_NODE":"187.6793","ELEMENT_SET_NO":"999","BSTAR":"-0.00001530400000","CLASSIFICATION_TYPE":"U"},{"PERIOD":"95.592","OBJECT_TYPE":"PAYLOAD","SITE":"AFETR","MEAN_MOTION":"15.06406215","TLE_LINE2":"2 45361  53.0545 197.4366 0001588  77.4039 282.7127 15.06406215 86565","PERIAPSIS":"546.095","DECAY_DATE":null,"ECCENTRICITY":"0.00015880","TIME_SYSTEM":"UTC","RCS_SIZE":"LARGE","LAUNCH_DATE":"2020-03-18","TLE_LINE1":"1 45361U 20019B   21279.51160080  .00003369  00000-0  24494-3 0  9990","MEAN_MOTION_DOT":"0.00003369","ARG_OF_PERICENTER":"77.4039","REF_FRAME":"TEME","NORAD_CAT_ID":"45361","OBJECT_ID":"2020-019B","REV_AT_EPOCH":"8656","MEAN_ELEMENT_THEORY":"SGP4","MEAN_ANOMALY":"282.7127","FILE":"3148521","APOAPSIS":"548.294","GP_ID":"186423719","CENTER_NAME":"EARTH","COUNTRY_CODE":"US","MEAN_MOTION_DDOT":"0.0000000000000","EPHEMERIS_TYPE":"0","OBJECT_NAME":"STARLINK-1301","BSTAR":"0.00024494000000","CLASSIFICATION_TYPE":"U","EPOCH":"2021-10-06T12:16:42.309120","RA_OF_ASC_NODE":"197.4366","INCLINATION":"53.0545","SEMIMAJOR_AXIS":"6925.330","ELEMENT_SET_NO":"999"},{"DECAY_DATE":null,"ECCENTRICITY":"0.00017290","TIME_SYSTEM":"UTC","MEAN_MOTION":"15.06404384","TLE_LINE2":"2 45362  53.0534 217.2295 0001729  72.3040 287.8138 15.06404384 86281","PERIOD":"95.592","OBJECT_TYPE":"PAYLOAD","SITE":"AFETR","PERIAPSIS":"546.003","NORAD_CAT_ID":"45362","REF_FRAME":"TEME","OBJECT_ID":"2020-019C","MEAN_MOTION_DOT":"0.00004659","ARG_OF_PERICENTER":"72.3040","FILE":"3148521","REV_AT_EPOCH":"8628","MEAN_ANOMALY":"287.8138","MEAN_ELEMENT_THEORY":"SGP4","LAUNCH_DATE":"2020-03-18","TLE_LINE1":"1 45362U 20019C   21279.55768656  .00004659  00000-0  33143-3 0  9992","RCS_SIZE":"LARGE","COUNTRY_CODE":"US","MEAN_MOTION_DDOT":"0.0000000000000","EPHEMERIS_TYPE":"0","OBJECT_NAME":"STARLINK-1306","APOAPSIS":"548.398","GP_ID":"186423970","CENTER_NAME":"EARTH","INCLINATION":"53.0534","SEMIMAJOR_AXIS":"6925.335","RA_OF_ASC_NODE":"217.2295","EPOCH":"2021-10-06T13:23:04.118784","ELEMENT_SET_NO":"999","BSTAR":"0.00033143000000","CLASSIFICATION_TYPE":"U"}];
